STARLINK-6143           
1 57133U 23090AJ  25206.95861262 -.00001895  00000+0 -12531-3 0  9996
2 57133  43.0051  53.9229 0001137 261.3141  98.7573 15.02516376115310
STARLINK-6133           
1 57134U 23090AK  25206.97301787  .00000451  00000+0  48456-4 0  9991
2 57134  43.0043  54.0299 0001249 270.7414  89.3285 15.02537295115311
STARLINK-6127           
1 57135U 23090AL  25206.01791649 -.00001001  00000+0 -59081-4 0  9997
2 57135  43.0050  58.9024 0001031 273.0105  87.0619 15.02531846116123
STARLINK-6112           
1 57136U 23090AM  25205.90604901 -.00000459  00000+0 -18933-4 0  9996
2 57136  43.0045  59.7880 0001081 271.4899  88.5819 15.02532447116120
STARLINK-5347           
1 57137U 23090AN  25206.55750400  .00000038  00000+0  17871-4 0  9996
2 57137  43.0060  56.0702 0001557 268.5771  91.4894 15.02530770116207
STARLINK-5336           
1 57138U 23090AP  25206.30377897  .00001403  00000+0  11884-3 0  9999
2 57138  43.0065  57.6100 0001732 265.0042  95.0603 15.02552062116161
STARLINK-5355           
1 57139U 23090AQ  25206.28715309 -.00000026  00000+0  13116-4 0  9993
2 57139  43.0038  57.4856 0001115 275.9527  84.1188 15.02535674116168
STARLINK-5357           
1 57141U 23090AS  25206.28158845  .00000145  00000+0  25797-4 0  9991
2 57141  43.0079  57.4378 0002460 259.6144 100.4421 15.02540033116160
STARLINK-5361           
1 57142U 23090AT  25207.00842611 -.00001362  00000+0 -85773-4 0  9998
2 57142  43.0034  53.4313 0000754 276.5089  83.5668 15.02537611115326
STARLINK-5358           
1 57143U 23090AU  25206.27383290 -.00000637  00000+0 -32060-4 0  9995
2 57143  43.0055  57.3827 0001574 259.7776 100.2888 15.02533757116161
STARLINK-5150           
1 57144U 23090AV  25206.01902256 -.00000671  00000+0 -34605-4 0  9992
2 57144  43.0053  58.9084 0001301 275.2807  84.7887 15.02533441116129
STARLINK-5768           
1 57145U 23090AW  25206.99621119 -.00000351  00000+0 -10912-4 0  9996
2 57145  43.0055  53.3416 0001302 263.9726  96.0968 15.02533270115322
STARLINK-5791           
1 57146U 23090AX  25206.27161336  .00000552  00000+0  55939-4 0  9997
2 57146  43.0045  57.3633 0000913 259.2163 100.8576 15.02535729116160
STARLINK-5765           
1 57147U 23090AY  25205.99460284 -.00000663  00000+0 -33990-4 0  9998
2 57147  43.0043  58.7232 0001313 268.9558  91.1134 15.02535594116318
STARLINK-5788           
1 57148U 23090AZ  25205.98794200 -.00000558  00000+0 -26235-4 0  9993
2 57148  43.0053  58.6767 0001477 262.5506  97.5169 15.02533574116129
STARLINK-5778           
1 57149U 23090BA  25206.54025130  .00001313  00000+0  11231-3 0  9993
2 57149  43.0061  29.8975 0001398 274.3956  85.6726 15.02521576116690
STARLINK-5780           
1 57150U 23090BB  25206.26828600 -.00000579  00000+0 -27824-4 0  9998
2 57150  43.0043  57.3414 0001235 275.1571  84.9130 15.02533862116353
STARLINK-5776           
1 57151U 23090BC  25207.06490626  .00000749  00000+0  70534-4 0  9994
2 57151  43.0041  52.9940 0001144 262.8756  97.1956 15.02534660115330
STARLINK-6164           
1 57152U 23090BD  25206.93528460 -.00000007  00000+0  14583-4 0  9998
2 57152  43.0046  53.7457 0001109 259.7899 100.2819 15.02531528116450
STARLINK-5879           
1 57153U 23090BE  25205.62928570 -.00002898  00000+0 -19951-3 0  9994
2 57153  43.0044  48.1250 0001370 267.8405  92.2281 15.02535184115264
STARLINK-6106           
1 57154U 23090BF  25206.99288387  .00000130  00000+0  24730-4 0  9998
2 57154  43.0040  53.3172 0000990 276.6988  83.3742 15.02531811115326
STARLINK-6108           
1 57155U 23090BG  25206.31366987  .00000267  00000+0  34815-4 0  9994
2 57155  43.0041  56.8203 0001321 265.9299  94.1393 15.02537564116364
STARLINK-6137           
1 57156U 23090BH  25206.31700792 -.00000036  00000+0  12378-4 0  9996
2 57156  43.0029  56.8450 0001440 254.0402 106.0281 15.02542072116361
STARLINK-5525           
1 57218U 23094A   25206.32430927  .00000043  00000+0  18259-4 0  9991
2 57218  43.0026 186.1732 0000953 319.3578  40.7193 15.02537919112911
STARLINK-5520           
1 57219U 23094B   25206.32097992  .00000152  00000+0  26293-4 0  9991
2 57219  43.0025 186.1508 0001218 291.5188  68.5524 15.02536364112914
STARLINK-5880           
1 57220U 23094C   25207.03669947 -.00000086  00000+0  87083-5 0  9999
2 57220  43.0030 182.0574 0001216 269.6740  90.3963 15.02534657113204
STARLINK-5875           
1 57221U 23094D   25206.98355466  .00002904  00000+0  22994-3 0  9999
2 57221  43.0010 182.5224 0000761 286.0751  74.0007 15.02531849113195
STARLINK-5870           
1 57222U 23094E   25207.04337313 -.00001484  00000+0 -94850-4 0  9994
2 57222  43.0023 182.1093 0001184 281.9617  78.1093 15.02520402113266
STARLINK-5519           
1 57223U 23094F   25206.44839077  .00000801  00000+0  74337-4 0  9990
2 57223  43.0027 185.3830 0001227 278.8283  81.2420 15.02541055112936
STARLINK-5983           
1 57224U 23094G   25206.37524992 -.00000110  00000+0  68992-5 0  9995
2 57224  43.0035 185.6971 0001237 283.7268  76.3437 15.02534178112924
