OBJECT_NAME,OBJECT_ID,EPOCH,MEAN_MOTION,ECCENTRICITY,INCLINATION,RA_OF_ASC_NODE,ARG_OF_PERICENTER,MEAN_ANOMALY,EPHEMERIS_TYPE,CLASSIFICATION_TYPE,NORAD_CAT_ID,ELEMENT_SET_NO,REV_AT_EPOCH,BSTAR,MEAN_MOTION_DOT,MEAN_MOTION_DDOT
STARLINK-6143,2023-090AJ,2025-07-25T23:00:24.130368,15.02516376,.0001137,43.0051,53.9229,261.3141,98.7573,0,U,57133,999,11531,-.12531E-3,-.1895E-4,0
STARLINK-6133,2023-090AK,2025-07-25T23:21:08.743968,15.02537295,.0001249,43.0043,54.0299,270.7414,89.3285,0,U,57134,999,11531,.48456E-4,.451E-5,0
STARLINK-6127,2023-090AL,2025-07-25T00:25:47.984736,15.02531846,.0001031,43.0050,58.9024,273.0105,87.0619,0,U,57135,999,11612,-.59081E-4,-.1001E-4,0
STARLINK-6112,2023-090AM,2025-07-24T21:44:42.634464,15.02532447,.0001081,43.0045,59.7880,271.4899,88.5819,0,U,57136,999,11612,-.18933E-4,-.459E-5,0
STARLINK-5347,2023-090AN,2025-07-25T13:22:48.345600,15.02530770,.0001557,43.0060,56.0702,268.5771,91.4894,0,U,57137,999,11620,.17871E-4,.38E-6,0
STARLINK-5336,2023-090AP,2025-07-25T07:17:26.503008,15.02552062,.0001732,43.0065,57.6100,265.0042,95.0603,0,U,57138,999,11616,.11884E-3,.1403E-4,0
STARLINK-5355,2023-090AQ,2025-07-25T06:53:30.026976,15.02535674,.0001115,43.0038,57.4856,275.9527,84.1188,0,U,57139,999,11616,.13116E-4,-.26E-6,0
STARLINK-5357,2023-090AS,2025-07-25T06:45:29.242080,15.02540033,.000246,43.0079,57.4378,259.6144,100.4421,0,U,57141,999,11616,.25797E-4,.145E-5,0
STARLINK-5361,2023-090AT,2025-07-26T00:12:08.015904,15.02537611,.0000754,43.0034,53.4313,276.5089,83.5668,0,U,57142,999,11532,-.85773E-4,-.1362E-4,0
STARLINK-5358,2023-090AU,2025-07-25T06:34:19.162560,15.02533757,.0001574,43.0055,57.3827,259.7776,100.2888,0,U,57143,999,11616,-.3206E-4,-.637E-5,0
STARLINK-5150,2023-090AV,2025-07-25T00:27:23.549184,15.02533441,.0001301,43.0053,58.9084,275.2807,84.7887,0,U,57144,999,11612,-.34605E-4,-.671E-5,0
STARLINK-5768,2023-090AW,2025-07-25T23:54:32.646816,15.02533270,.0001302,43.0055,53.3416,263.9726,96.0968,0,U,57145,999,11532,-.10912E-4,-.351E-5,0
STARLINK-5791,2023-090AX,2025-07-25T06:31:07.394304,15.02535729,.0000913,43.0045,57.3633,259.2163,100.8576,0,U,57146,999,11616,.55939E-4,.552E-5,0
STARLINK-5765,2023-090AY,2025-07-24T23:52:13.685376,15.02535594,.0001313,43.0043,58.7232,268.9558,91.1134,0,U,57147,999,11631,-.3399E-4,-.663E-5,0
STARLINK-5788,2023-090AZ,2025-07-24T23:42:38.188800,15.02533574,.0001477,43.0053,58.6767,262.5506,97.5169,0,U,57148,999,11612,-.26235E-4,-.558E-5,0
STARLINK-5778,2023-090BA,2025-07-25T12:57:57.712320,15.02521576,.0001398,43.0061,29.8975,274.3956,85.6726,0,U,57149,999,11669,.11231E-3,.1313E-4,0
STARLINK-5780,2023-090BB,2025-07-25T06:26:19.910400,15.02533862,.0001235,43.0043,57.3414,275.1571,84.9130,0,U,57150,999,11635,-.27824E-4,-.579E-5,0
STARLINK-5776,2023-090BC,2025-07-26T01:33:27.900864,15.02534660,.0001144,43.0041,52.9940,262.8756,97.1956,0,U,57151,999,11533,.70534E-4,.749E-5,0
STARLINK-6164,2023-090BD,2025-07-25T22:26:48.589440,15.02531528,.0001109,43.0046,53.7457,259.7899,100.2819,0,U,57152,999,11645,.14583E-4,-.7E-7,0
STARLINK-5879,2023-090BE,2025-07-24T15:06:10.284480,15.02535184,.000137,43.0044,48.1250,267.8405,92.2281,0,U,57153,999,11526,-.19951E-3,-.2898E-4,0
STARLINK-6106,2023-090BF,2025-07-25T23:49:45.166368,15.02531811,.000099,43.0040,53.3172,276.6988,83.3742,0,U,57154,999,11532,.2473E-4,.13E-5,0
STARLINK-6108,2023-090BG,2025-07-25T07:31:41.076768,15.02537564,.0001321,43.0041,56.8203,265.9299,94.1393,0,U,57155,999,11636,.34815E-4,.267E-5,0
STARLINK-6137,2023-090BH,2025-07-25T07:36:29.484288,15.02542072,.000144,43.0029,56.8450,254.0402,106.0281,0,U,57156,999,11636,.12378E-4,-.36E-6,0
STARLINK-5525,2023-094A,2025-07-25T07:47:00.320928,15.02537919,.0000953,43.0026,186.1732,319.3578,40.7193,0,U,57218,999,11291,.18259E-4,.43E-6,0
STARLINK-5520,2023-094B,2025-07-25T07:42:12.665088,15.02536364,.0001218,43.0025,186.1508,291.5188,68.5524,0,U,57219,999,11291,.26293E-4,.152E-5,0
STARLINK-5880,2023-094C,2025-07-26T00:52:50.834208,15.02534657,.0001216,43.0030,182.0574,269.6740,90.3963,0,U,57220,999,11320,.87083E-5,-.86E-6,0
STARLINK-5875,2023-094D,2025-07-25T23:36:19.122624,15.02531849,.0000761,43.0010,182.5224,286.0751,74.0007,0,U,57221,999,11319,.22994E-3,.2904E-4,0
STARLINK-5870,2023-094E,2025-07-26T01:02:27.438432,15.02520402,.0001184,43.0023,182.1093,281.9617,78.1093,0,U,57222,999,11326,-.9485E-4,-.1484E-4,0
STARLINK-5519,2023-094F,2025-07-25T10:45:40.962528,15.02541055,.0001227,43.0027,185.3830,278.8283,81.2420,0,U,57223,999,11293,.74337E-4,.801E-5,0
STARLINK-5983,2023-094G,2025-07-25T09:00:21.593088,15.02534178,.0001237,43.0035,185.6971,283.7268,76.3437,0,U,57224,999,11292,.68992E-5,-.11E-5,0
